EUTELSAT 7A             
1 28187U 04008A   25362.38863983  .00000122  00000+0  00000+0 0  9997
2 28187   5.3957  74.0703 0001266 223.3431 160.3895  1.00272626 79645
EUTELSAT 174A           
1 28924U 05052A   25362.41017197  .00000029  00000+0  00000+0 0  9994
2 28924   3.7851  78.6672 0006175 200.2780 139.8154  1.00270552 50610
EUTELSAT HOTBIRD 13B    
1 29270U 06032A   25362.47558251  .00000177  00000+0  00000+0 0  9999
2 29270   1.2196  84.2333 0003405 194.5405  22.7095  1.00269750 45592
EUTELSAT HOTBIRD 13C    
1 33459U 08065A   25362.45902909 -.00000262  00000+0  00000+0 0  9998
2 33459   2.5102  81.2450 0003577 195.4086 295.4799  1.00271533 45636
EUTELSAT 36B            
1 36101U 09065A   25362.47904920  .00000134  00000+0  00000+0 0  9990
2 36101   0.0649  50.8323 0005973 226.1254  43.1789  1.00272707 58998
EUTELSAT KA-SAT 9A      
1 37258U 10069A   25361.25947390  .00000085  00000+0  00000+0 0  9998
2 37258   0.0515 335.3130 0001476 219.6939   3.3831  1.00276483 42288
EUTELSAT 7 WEST A       
1 37816U 11051A   25362.18224235 -.00000038  00000+0  00000+0 0  9998
2 37816   0.0616 357.6984 0005197 236.1533 281.3483  1.00270962 52167
EUTELSAT 16A            
1 37836U 11057A   25362.18683572  .00000126  00000+0  00000+0 0  9996
2 37836   0.0551 357.0468 0005811 282.1270 260.9805  1.00272389  5614
